QIANFAN-57              
1 62787U 25016C   25206.47216554  .00000116  00000+0  16153-3 0  9999
2 62787  88.9861 117.6542 0016944  39.0570 321.1801 13.50959909 28260
QIANFAN-58              
1 62788U 25016D   25206.59155466  .00000144  00000+0  20465-3 0  9999
2 62788  88.9830 117.5174 0015650  34.4070 325.8091 13.50953461 28320
QIANFAN-59              
1 62789U 25016E   25206.52991174  .00000132  00000+0  18641-3 0  9997
2 62789  88.9854 117.5609 0016633  37.1559 323.0740 13.50957818 28314
QIANFAN-60              
1 62790U 25016F   25206.52151408  .00000147  00000+0  20861-3 0  9990
2 62790  88.9835 117.5680 0017052  34.9842 325.2426 13.50966187 28291
QIANFAN-61              
1 62791U 25016G   25206.53402607  .00000121  00000+0  16858-3 0  9995
2 62791  88.9903 117.6291 0016454  34.0006 326.2196 13.50955702 28314
QIANFAN-62              
1 62792U 25016H   25206.46389299  .00000138  00000+0  19547-3 0  9995
2 62792  88.9849 117.5806 0017867  34.0494 326.1800 13.50954617 28297
QIANFAN-63              
1 62793U 25016J   25206.47623228  .00000088  00000+0  11812-3 0  9991
2 62793  88.9855 117.5186 0017769  38.1572 322.0833 13.50951738 28336
QIANFAN-64              
1 62794U 25016K   25206.46799886  .00000126  00000+0  17631-3 0  9993
2 62794  88.9842 117.5183 0015469  33.2479 326.9641 13.50960347 28322
